     2.100          NAVIGATION                              RINEX VERSION / TYPE
fic2rin                                 12/22/2010 00:05:30 PGM / RUN BY / DATE
                                                            END OF HEADER
31 10 12 21 12  0  0.0  .210013240576D-04  .397903932026D-11  .000000000000D+00
     .500000000000D+02 -.605312500000D+02  .434018078595D-08 -.145961409341D+00
    -.333972275257D-05  .781737954821D-02  .262632966042D-06  .515355816078D+04
     .216000000000D+06 -.614672899246D-07 -.124365581953D+01 -.124797224998D-06
     .978418955580D+00  .380968750000D+03 -.103366065136D+01 -.840213569696D-08
    -.825034365993D-10  .100000000000D+01  .161500000000D+04  .000000000000D+00
     .240000000000D+01  .000000000000D+00 -.130385160446D-07  .500000000000D+02
     .208806000000D+06  .400000000000D+01
32 10 12 21 12  0  0.0 -.157929025590D-03 -.818545231596D-11  .000000000000D+00
     .770000000000D+02  .574687500000D+02  .435018120251D-08  .667069923374D+00
     .275485217571D-05  .124381044880D-01  .110734254122D-04  .515378460693D+04
     .216000000000D+06  .894069671631D-07  .302455807788D+01 -.199303030968D-06
     .957092041354D+00  .166687500000D+03 -.856521480712D+00 -.793354474970D-08
    -.470733893670D-09  .100000000000D+01  .161500000000D+04  .000000000000D+00
     .240000000000D+01  .000000000000D+00 -.372529029846D-08  .770000000000D+02
     .208806000000D+06  .400000000000D+01
14 10 12 21 11 59 44.0  .117395073175D-03  .306954461848D-11  .000000000000D+00
     .280000000000D+02  .139312500000D+03  .385016037463D-08  .228096519778D+01
     .723823904991D-05  .571971863974D-02  .485405325890D-05  .515361134529D+04
     .215984000000D+06 -.167638063431D-07 -.224536593481D+01 -.126659870148D-06
     .984379960542D+00  .295062500000D+03 -.208007257361D+01 -.783925510787D-08
     .337871216549D-09  .100000000000D+01  .161500000000D+04  .000000000000D+00
     .240000000000D+01  .000000000000D+00 -.884756445885D-08  .280000000000D+02
     .209466000000D+06  .400000000000D+01
20 10 12 21 11 59 44.0  .490075908601D-04 -.113686837722D-12  .000000000000D+00
     .100000000000D+01  .459687500000D+02  .477091301339D-08 -.179696880735D+01
     .234134495258D-05  .454305973835D-02  .111348927021D-04  .515377187920D+04
     .215984000000D+06  .152736902237D-06  .290308635313D+01  .465661287308D-07
     .935181495960D+00  .152875000000D+03  .125957106624D+01 -.791068665471D-08
    -.585738684082D-09  .100000000000D+01  .161500000000D+04  .000000000000D+00
     .240000000000D+01  .000000000000D+00 -.791624188423D-08  .100000000000D+01
     .209736000000D+06  .400000000000D+01
21 10 12 21 11 59 44.0 -.110950320959D-03 -.272848410532D-11  .000000000000D+00
     .400000000000D+01 -.131875000000D+02  .569845164910D-08 -.930243420372D+00
    -.618398189545D-06  .170589857735D-01  .486336648464D-05  .515358942032D+04
     .215984000000D+06  .337138772011D-06  .190169185950D+01  .242143869400D-06
     .931548046327D+00  .267281250000D+03 -.242525794717D+01 -.857964309086D-08
    -.397159400426D-09  .100000000000D+01  .161500000000D+04  .000000000000D+00
     .240000000000D+01  .000000000000D+00 -.116415321827D-07  .400000000000D+01
     .214956000000D+06  .400000000000D+01
20 10 12 21 13 59 44.0  .490066595376D-04 -.113686837722D-12  .000000000000D+00
     .310000000000D+02  .400000000000D+02  .492484799683D-08 -.746859554224D+00
     .204145908356D-05  .454261444975D-02  .110976397991D-04  .515377151871D+04
     .223184000000D+06 -.484287738800D-07  .290302869953D+01  .949949026108D-07
     .935176331859D+00  .151312500000D+03  .125958462895D+01 -.811248077453D-08
    -.596453416107D-09  .100000000000D+01  .161500000000D+04  .000000000000D+00
     .240000000000D+01  .000000000000D+00 -.791624188423D-08  .310000000000D+02
     .216006000000D+06  .400000000000D+01
21 10 12 21 13 59 44.0 -.110969878733D-03 -.272848410532D-11  .000000000000D+00
     .350000000000D+02 -.114687500000D+02  .582559980247D-08  .119995047921D+00
    -.510364770889D-06  .170591068454D-01  .494718551636D-05  .515358957672D+04
     .223184000000D+06  .149011611938D-07  .190162872727D+01  .229105353355D-06
     .931544184223D+00  .267156250000D+03 -.242525472729D+01 -.882286750785D-08
    -.396445084958D-09  .100000000000D+01  .161500000000D+04  .000000000000D+00
     .240000000000D+01  .000000000000D+00 -.116415321827D-07  .350000000000D+02
     .216006000000D+06  .400000000000D+01
 1 10 12 21 14  0  0.0 -.193216837943D-03 -.341060513165D-11  .000000000000D+00
     .860000000000D+02 -.138250000000D+03  .402981071493D-08 -.209066645727D+01
    -.730715692043D-05  .440795614850D-02  .975653529167D-05  .515354685402D+04
     .223200000000D+06  .428408384323D-07 -.205518593497D+00 -.689178705215D-07
     .967579616215D+00  .192531250000D+03  .920216674947D+00 -.766781939546D-08
     .942896418278D-10  .100000000000D+01  .161500000000D+04  .000000000000D+00
     .240000000000D+01  .630000000000D+02 -.190921127796D-07  .860000000000D+02
     .216006000000D+06  .400000000000D+01
 2 10 12 21 14  0  0.0  .309986528009D-03  .227373675443D-11  .000000000000D+00
     .300000000000D+01 -.146875000000D+02  .546451333320D-08  .261775633862D+01
    -.730156898499D-06  .985868345015D-02  .532530248165D-05  .515367195702D+04
     .223200000000D+06 -.219792127609D-06  .187463134507D+01  .689178705215D-07
     .938830275512D+00  .266656250000D+03 -.311663344544D+01 -.827284459718D-08
    -.322513433979D-09  .100000000000D+01  .161500000000D+04  .000000000000D+00
     .240000000000D+01  .000000000000D+00 -.172294676304D-07  .300000000000D+01
     .216006000000D+06  .400000000000D+01
 3 10 12 21 14  0  0.0  .651658978313D-03  .522959453519D-11  .000000000000D+00
     .117000000000D+03 -.315625000000D+01  .519628787482D-08  .253323904223D+01
    -.240281224251D-06  .138773251092D-01  .975094735622D-05  .515362972832D+04
     .223200000000D+06  .745058059692D-07  .718753209905D+00 -.244006514549D-06
     .928062456749D+00  .172781250000D+03  .106557052563D+01 -.791747265166D-08
     .695028950746D-09  .100000000000D+01  .161500000000D+04  .000000000000D+00
     .340000000000D+01  .000000000000D+00 -.465661287308D-08  .117000000000D+03
     .216006000000D+06  .400000000000D+01
 4 10 12 21 14  0  0.0  .250607728958D-03  .977706804406D-11  .000000000000D+00
     .850000000000D+02 -.147500000000D+02  .555951729050D-08 -.727319497879D+00
    -.646337866783D-06  .962598703336D-02  .507384538651D-05  .515354820633D+04
     .223200000000D+06  .968575477600D-07  .189224209482D+01  .176951289177D-06
     .937949989428D+00  .268093750000D+03  .692341498185D+00 -.850178270480D-08
    -.359300680601D-09  .100000000000D+01  .161500000000D+04  .000000000000D+00
     .240000000000D+01  .000000000000D+00 -.605359673500D-08  .850000000000D+02
     .216006000000D+06  .400000000000D+01
 5 10 12 21 14  0  0.0 -.863741151989D-04 -.602540239925D-11  .000000000000D+00
     .440000000000D+02  .541875000000D+02  .435196699118D-08 -.199062539982D+01
     .276044011116D-05  .216640159488D-02  .115819275379D-04  .515358705139D+04
     .223200000000D+06  .372529029846D-07  .293554517132D+01 -.428408384323D-07
     .956256602486D+00  .155656250000D+03  .234975098559D+00 -.773603652269D-08
    -.562880589093D-09  .100000000000D+01  .161500000000D+04  .000000000000D+00
     .240000000000D+01  .000000000000D+00 -.977888703346D-08  .440000000000D+02
     .216006000000D+06  .400000000000D+01
 6 10 12 21 14  0  0.0  .386130064726D-03 -.886757334229D-11  .000000000000D+00
     .520000000000D+02  .928125000000D+01  .518807324693D-08 -.162547250526D+01
     .534579157829D-06  .625285913702D-02  .954605638981D-05  .515365215683D+04
     .223200000000D+06 -.145286321640D-06  .791092604205D+00 -.931322574615D-08
     .935213108157D+00  .185718750000D+03 -.890981123180D+00 -.816926885427D-08
     .725030200418D-09  .100000000000D+01  .161500000000D+04  .000000000000D+00
     .240000000000D+01  .000000000000D+00 -.465661287308D-08  .520000000000D+02
     .216006000000D+06  .400000000000D+01
 7 10 12 21 14  0  0.0  .669620931149D-06  .454747350886D-12  .000000000000D+00
     .330000000000D+02 -.570937500000D+02  .439018286874D-08  .869554604714D+00
    -.294670462608D-05  .416548806243D-02  .633299350739D-07  .515368079376D+04
     .223200000000D+06  .409781932831D-07 -.124426609921D+01  .670552253723D-07
     .973225688562D+00  .383343750000D+03 -.310114161404D+01 -.834534761723D-08
    -.139648674071D-09  .100000000000D+01  .161500000000D+04  .000000000000D+00
     .240000000000D+01  .000000000000D+00 -.102445483208D-07  .330000000000D+02
     .216006000000D+06  .400000000000D+01
 8 10 12 21 14  0  0.0  .708922743797D-05  .000000000000D+00  .000000000000D+00
     .180000000000D+02 -.753125000000D+02  .395159317115D-08  .331703742278D+00
    -.392086803913D-05  .114602252143D-01  .882893800735D-06  .515363413239D+04
     .223200000000D+06  .195577740669D-06 -.117199606332D+01  .335276126862D-07
     .994802119558D+00  .378062500000D+03 -.309702341918D+01 -.821641367518D-08
    -.154649298907D-09  .100000000000D+01  .161500000000D+04  .000000000000D+00
     .240000000000D+01  .000000000000D+00 -.419095158577D-08  .180000000000D+02
     .216006000000D+06  .400000000000D+01
 9 10 12 21 14  0  0.0  .502481125295D-04  .250111042988D-11  .000000000000D+00
     .860000000000D+02 -.556250000000D+02  .432553731885D-08  .217061946096D+00
    -.301189720631D-05  .169699583203D-01  .132247805595D-06  .515368943024D+04
     .223200000000D+06 -.277534127235D-06 -.127390923312D+01 -.596046447754D-07
     .982204437512D+00  .389656250000D+03  .155423718986D+01 -.864214569434D-08
    -.172864343351D-09  .100000000000D+01  .161500000000D+04  .000000000000D+00
     .340000000000D+01  .000000000000D+00 -.558793544769D-08  .860000000000D+02
     .216006000000D+06  .400000000000D+01
